<?xml version="1.0" encoding="UTF-8"?>
<ndm xmlns:xsi="http://www.w3.org/2001/XMLSchema-instance" xsi:noNamespaceSchemaLocation="https://sanaregistry.org/r/ndmxml_unqualified/ndmxml-2.0.0-master-2.0.xsd">
<omm id="CCSDS_OMM_VERS" version="2.0">
<header><CREATION_DATE/><ORIGINATOR/></header><body><segment><metadata><OBJECT_NAME>KUIPER-00027</OBJECT_NAME><OBJECT_ID>2025-088S</OBJECT_ID><CENTER_NAME>EARTH</CENTER_NAME><REF_FRAME>TEME</REF_FRAME><TIME_SYSTEM>UTC</TIME_SYSTEM><MEAN_ELEMENT_THEORY>SGP4</MEAN_ELEMENT_THEORY></metadata><data><meanElements><EPOCH>2025-12-10T08:00:03.000384</EPOCH><MEAN_MOTION>14.78845451</MEAN_MOTION><ECCENTRICITY>.00046751</ECCENTRICITY><INCLINATION>51.8997</INCLINATION><RA_OF_ASC_NODE>130.6969</RA_OF_ASC_NODE><ARG_OF_PERICENTER>207.3185</ARG_OF_PERICENTER><MEAN_ANOMALY>238.1897</MEAN_ANOMALY></meanElements><tleParameters><EPHEMERIS_TYPE>0</EPHEMERIS_TYPE><CLASSIFICATION_TYPE>U</CLASSIFICATION_TYPE><NORAD_CAT_ID>63740</NORAD_CAT_ID><ELEMENT_SET_NO>999</ELEMENT_SET_NO><REV_AT_EPOCH>130</REV_AT_EPOCH><BSTAR>.94635007E-2</BSTAR><MEAN_MOTION_DOT>.7084E-3</MEAN_MOTION_DOT><MEAN_MOTION_DDOT>0</MEAN_MOTION_DDOT></tleParameters></data></segment></body></omm>
<omm id="CCSDS_OMM_VERS" version="2.0">
<header><CREATION_DATE/><ORIGINATOR/></header><body><segment><metadata><OBJECT_NAME>KUIPER-00028</OBJECT_NAME><OBJECT_ID>2025-088T</OBJECT_ID><CENTER_NAME>EARTH</CENTER_NAME><REF_FRAME>TEME</REF_FRAME><TIME_SYSTEM>UTC</TIME_SYSTEM><MEAN_ELEMENT_THEORY>SGP4</MEAN_ELEMENT_THEORY></metadata><data><meanElements><EPOCH>2025-12-10T03:07:45.308064</EPOCH><MEAN_MOTION>14.79643816</MEAN_MOTION><ECCENTRICITY>.00037351</ECCENTRICITY><INCLINATION>51.8989</INCLINATION><RA_OF_ASC_NODE>129.5549</RA_OF_ASC_NODE><ARG_OF_PERICENTER>233.6068</ARG_OF_PERICENTER><MEAN_ANOMALY>126.4550</MEAN_ANOMALY></meanElements><tleParameters><EPHEMERIS_TYPE>0</EPHEMERIS_TYPE><CLASSIFICATION_TYPE>U</CLASSIFICATION_TYPE><NORAD_CAT_ID>63741</NORAD_CAT_ID><ELEMENT_SET_NO>999</ELEMENT_SET_NO><REV_AT_EPOCH>3479</REV_AT_EPOCH><BSTAR>.39938181E-3</BSTAR><MEAN_MOTION_DOT>.2804E-4</MEAN_MOTION_DOT><MEAN_MOTION_DDOT>0</MEAN_MOTION_DDOT></tleParameters></data></segment></body></omm>
<omm id="CCSDS_OMM_VERS" version="2.0">
<header><CREATION_DATE/><ORIGINATOR/></header><body><segment><metadata><OBJECT_NAME>KUIPER-00029</OBJECT_NAME><OBJECT_ID>2025-088U</OBJECT_ID><CENTER_NAME>EARTH</CENTER_NAME><REF_FRAME>TEME</REF_FRAME><TIME_SYSTEM>UTC</TIME_SYSTEM><MEAN_ELEMENT_THEORY>SGP4</MEAN_ELEMENT_THEORY></metadata><data><meanElements><EPOCH>2025-12-09T19:41:03.883776</EPOCH><MEAN_MOTION>14.79952684</MEAN_MOTION><ECCENTRICITY>.00092498</ECCENTRICITY><INCLINATION>51.9016</INCLINATION><RA_OF_ASC_NODE>128.7163</RA_OF_ASC_NODE><ARG_OF_PERICENTER>181.6867</ARG_OF_PERICENTER><MEAN_ANOMALY>178.4065</MEAN_ANOMALY></meanElements><tleParameters><EPHEMERIS_TYPE>0</EPHEMERIS_TYPE><CLASSIFICATION_TYPE>U</CLASSIFICATION_TYPE><NORAD_CAT_ID>63742</NORAD_CAT_ID><ELEMENT_SET_NO>999</ELEMENT_SET_NO><REV_AT_EPOCH>3430</REV_AT_EPOCH><BSTAR>.5743059E-3</BSTAR><MEAN_MOTION_DOT>.4162E-4</MEAN_MOTION_DOT><MEAN_MOTION_DDOT>0</MEAN_MOTION_DDOT></tleParameters></data></segment></body></omm>
<omm id="CCSDS_OMM_VERS" version="2.0">
<header><CREATION_DATE/><ORIGINATOR/></header><body><segment><metadata><OBJECT_NAME>KUIPER-00030</OBJECT_NAME><OBJECT_ID>2025-088V</OBJECT_ID><CENTER_NAME>EARTH</CENTER_NAME><REF_FRAME>TEME</REF_FRAME><TIME_SYSTEM>UTC</TIME_SYSTEM><MEAN_ELEMENT_THEORY>SGP4</MEAN_ELEMENT_THEORY></metadata><data><meanElements><EPOCH>2025-12-10T04:00:38.513952</EPOCH><MEAN_MOTION>14.79955733</MEAN_MOTION><ECCENTRICITY>.00151459</ECCENTRICITY><INCLINATION>51.8992</INCLINATION><RA_OF_ASC_NODE>146.4058</RA_OF_ASC_NODE><ARG_OF_PERICENTER>134.5562</ARG_OF_PERICENTER><MEAN_ANOMALY>225.6640</MEAN_ANOMALY></meanElements><tleParameters><EPHEMERIS_TYPE>0</EPHEMERIS_TYPE><CLASSIFICATION_TYPE>U</CLASSIFICATION_TYPE><NORAD_CAT_ID>63743</NORAD_CAT_ID><ELEMENT_SET_NO>999</ELEMENT_SET_NO><REV_AT_EPOCH>3437</REV_AT_EPOCH><BSTAR>-.32909042E-3</BSTAR><MEAN_MOTION_DOT>-.274E-4</MEAN_MOTION_DOT><MEAN_MOTION_DDOT>0</MEAN_MOTION_DDOT></tleParameters></data></segment></body></omm>
<omm id="CCSDS_OMM_VERS" version="2.0">
<header><CREATION_DATE/><ORIGINATOR/></header><body><segment><metadata><OBJECT_NAME>KUIPER-00031</OBJECT_NAME><OBJECT_ID>2025-088W</OBJECT_ID><CENTER_NAME>EARTH</CENTER_NAME><REF_FRAME>TEME</REF_FRAME><TIME_SYSTEM>UTC</TIME_SYSTEM><MEAN_ELEMENT_THEORY>SGP4</MEAN_ELEMENT_THEORY></metadata><data><meanElements><EPOCH>2025-12-09T17:00:57.583584</EPOCH><MEAN_MOTION>14.79856857</MEAN_MOTION><ECCENTRICITY>.00047852</ECCENTRICITY><INCLINATION>51.9010</INCLINATION><RA_OF_ASC_NODE>134.5041</RA_OF_ASC_NODE><ARG_OF_PERICENTER>165.4401</ARG_OF_PERICENTER><MEAN_ANOMALY>194.6700</MEAN_ANOMALY></meanElements><tleParameters><EPHEMERIS_TYPE>0</EPHEMERIS_TYPE><CLASSIFICATION_TYPE>U</CLASSIFICATION_TYPE><NORAD_CAT_ID>63744</NORAD_CAT_ID><ELEMENT_SET_NO>999</ELEMENT_SET_NO><REV_AT_EPOCH>3421</REV_AT_EPOCH><BSTAR>.24818286E-2</BSTAR><MEAN_MOTION_DOT>.18719E-3</MEAN_MOTION_DOT><MEAN_MOTION_DDOT>0</MEAN_MOTION_DDOT></tleParameters></data></segment></body></omm>
<omm id="CCSDS_OMM_VERS" version="2.0">
<header><CREATION_DATE/><ORIGINATOR/></header><body><segment><metadata><OBJECT_NAME>KUIPER-00032</OBJECT_NAME><OBJECT_ID>2025-088X</OBJECT_ID><CENTER_NAME>EARTH</CENTER_NAME><REF_FRAME>TEME</REF_FRAME><TIME_SYSTEM>UTC</TIME_SYSTEM><MEAN_ELEMENT_THEORY>SGP4</MEAN_ELEMENT_THEORY></metadata><data><meanElements><EPOCH>2025-12-08T15:53:18.081312</EPOCH><MEAN_MOTION>15.33450967</MEAN_MOTION><ECCENTRICITY>.00043913</ECCENTRICITY><INCLINATION>51.8725</INCLINATION><RA_OF_ASC_NODE>102.9502</RA_OF_ASC_NODE><ARG_OF_PERICENTER>162.0387</ARG_OF_PERICENTER><MEAN_ANOMALY>198.0754</MEAN_ANOMALY></meanElements><tleParameters><EPHEMERIS_TYPE>0</EPHEMERIS_TYPE><CLASSIFICATION_TYPE>U</CLASSIFICATION_TYPE><NORAD_CAT_ID>63745</NORAD_CAT_ID><ELEMENT_SET_NO>999</ELEMENT_SET_NO><REV_AT_EPOCH>3556</REV_AT_EPOCH><BSTAR>.69077561E-3</BSTAR><MEAN_MOTION_DOT>.22367E-3</MEAN_MOTION_DOT><MEAN_MOTION_DDOT>0</MEAN_MOTION_DDOT></tleParameters></data></segment></body></omm>
<omm id="CCSDS_OMM_VERS" version="2.0">
<header><CREATION_DATE/><ORIGINATOR/></header><body><segment><metadata><OBJECT_NAME>KUIPER-00033</OBJECT_NAME><OBJECT_ID>2025-088Y</OBJECT_ID><CENTER_NAME>EARTH</CENTER_NAME><REF_FRAME>TEME</REF_FRAME><TIME_SYSTEM>UTC</TIME_SYSTEM><MEAN_ELEMENT_THEORY>SGP4</MEAN_ELEMENT_THEORY></metadata><data><meanElements><EPOCH>2025-12-09T22:43:17.783040</EPOCH><MEAN_MOTION>14.79921706</MEAN_MOTION><ECCENTRICITY>.00030308</ECCENTRICITY><INCLINATION>51.8999</INCLINATION><RA_OF_ASC_NODE>163.4388</RA_OF_ASC_NODE><ARG_OF_PERICENTER>213.4784</ARG_OF_PERICENTER><MEAN_ANOMALY>146.5987</MEAN_ANOMALY></meanElements><tleParameters><EPHEMERIS_TYPE>0</EPHEMERIS_TYPE><CLASSIFICATION_TYPE>U</CLASSIFICATION_TYPE><NORAD_CAT_ID>63746</NORAD_CAT_ID><ELEMENT_SET_NO>999</ELEMENT_SET_NO><REV_AT_EPOCH>3431</REV_AT_EPOCH><BSTAR>.55887528E-3</BSTAR><MEAN_MOTION_DOT>.404E-4</MEAN_MOTION_DOT><MEAN_MOTION_DDOT>0</MEAN_MOTION_DDOT></tleParameters></data></segment></body></omm>
<omm id="CCSDS_OMM_VERS" version="2.0">
<header><CREATION_DATE/><ORIGINATOR/></header><body><segment><metadata><OBJECT_NAME>KUIPER-00034</OBJECT_NAME><OBJECT_ID>2025-088Z</OBJECT_ID><CENTER_NAME>EARTH</CENTER_NAME><REF_FRAME>TEME</REF_FRAME><TIME_SYSTEM>UTC</TIME_SYSTEM><MEAN_ELEMENT_THEORY>SGP4</MEAN_ELEMENT_THEORY></metadata><data><meanElements><EPOCH>2025-12-09T10:43:32.687040</EPOCH><MEAN_MOTION>14.79929974</MEAN_MOTION><ECCENTRICITY>.00024535</ECCENTRICITY><INCLINATION>51.9028</INCLINATION><RA_OF_ASC_NODE>128.1658</RA_OF_ASC_NODE><ARG_OF_PERICENTER>155.0808</ARG_OF_PERICENTER><MEAN_ANOMALY>205.0274</MEAN_ANOMALY></meanElements><tleParameters><EPHEMERIS_TYPE>0</EPHEMERIS_TYPE><CLASSIFICATION_TYPE>U</CLASSIFICATION_TYPE><NORAD_CAT_ID>63747</NORAD_CAT_ID><ELEMENT_SET_NO>999</ELEMENT_SET_NO><REV_AT_EPOCH>3444</REV_AT_EPOCH><BSTAR>.64441141E-4</BSTAR><MEAN_MOTION_DOT>.27E-5</MEAN_MOTION_DOT><MEAN_MOTION_DDOT>0</MEAN_MOTION_DDOT></tleParameters></data></segment></body></omm>

</ndm>
