KUIPER-00027            
1 63740U 25088S   25344.33336806  .00070840  00000+0  94635-2 0  9990
2 63740  51.8997 130.6969 0004675 207.3185 238.1897 14.78845451  1302
KUIPER-00028            
1 63741U 25088T   25344.13038551  .00002804  00000+0  39938-3 0  9996
2 63741  51.8989 129.5549 0003735 233.6068 126.4550 14.79643816 34799
KUIPER-00029            
1 63742U 25088U   25343.82018384  .00004162  00000+0  57431-3 0  9991
2 63742  51.9016 128.7163 0009249 181.6867 178.4065 14.79952684 34301
KUIPER-00030            
1 63743U 25088V   25344.16711243 -.00002740  00000+0 -32909-3 0  9999
2 63743  51.8992 146.4058 0015145 134.5562 225.6640 14.79955733 34374
KUIPER-00031            
1 63744U 25088W   25343.70899981  .00018719  00000+0  24818-2 0  9995
2 63744  51.9010 134.5041 0004785 165.4401 194.6700 14.79856857 34212
KUIPER-00032            
1 63745U 25088X   25342.66201483  .00022367  00000+0  69078-3 0  9996
2 63745  51.8725 102.9502 0004391 162.0387 198.0754 15.33450967 35564
KUIPER-00033            
1 63746U 25088Y   25343.94673360  .00004040  00000+0  55888-3 0  9998
2 63746  51.8999 163.4388 0003030 213.4784 146.5987 14.79921706 34314
KUIPER-00034            
1 63747U 25088Z   25343.44690610  .00000270  00000+0  64441-4 0  9998
2 63747  51.9028 128.1658 0002453 155.0808 205.0274 14.79929974 34442
